{
  "type": "FeatureCollection",
  "name": "vanguard_city_wards",
  "crs": {
    "type": "name",
    "properties": {
      "name": "urn:ogc:def:crs:OGC:1.3:CRS84"
    }
  },
  "features": [
    {
      "type": "Feature",
      "properties": {
        "ward_number": 1,
        "name": "Ward 1",
        "centroid": [
          85.84895369001835,
          20.301297792270443
        ],
        "area_sq_km": 6.34
      },
      "geometry": {
        "type": "Polygon",
        "coordinates": [
          [
            [
              85.8245,
              20.2961
            ],
            [
              85.8745,
              20.2961
            ],
            [
              85.87829811804036,
              20.307535142994976
            ],
            [
              85.87017727288213,
              20.31643683215379
            ],
            [
              85.8245,
              20.2961
            ]
          ]
        ]
      }
    },
    {
      "type": "Feature",
      "properties": {
        "ward_number": 2,
        "name": "Ward 2",
        "centroid": [
          85.84472542485938,
          20.31079463130731
        ],
        "area_sq_km": 6.34
      },
      "geometry": {
        "type": "Polygon",
        "coordinates": [
          [
            [
              85.8245,
              20.2961
            ],
            [
              85.87017727288213,
              20.31643683215379
            ],
            [
              85.86899593469062,
              20.328428188876085
            ],
            [
              85.85795653031795,
              20.33325724127387
            ],
            [
              85.8245,
              20.2961
            ]
          ]
        ]
      }
    },
    {
      "type": "Feature",
      "properties": {
        "ward_number": 3,
        "name": "Ward 3",
        "centroid": [
          85.837,
          20.31775063509461
        ],
        "area_sq_km": 6.34
      },
      "geometry": {
        "type": "Polygon",
        "coordinates": [
          [
            [
              85.8245,
              20.2961
            ],
            [
              85.85795653031795,
              20.33325724127387
            ],
            [
              85.852,
              20.343731397208142
            ],
            [
              85.83995084971875,
              20.343652825814758
            ],
            [
              85.8245,
              20.2961
            ]
          ]
        ]
      }
    },
    {
      "type": "Feature",
      "properties": {
        "ward_number": 4,
        "name": "Ward 4",
        "centroid": [
          85.82711321158169,
          20.320963047384208
        ],
        "area_sq_km": 6.34
      },
      "geometry": {
        "type": "Polygon",
        "coordinates": [
          [
            [
              85.8245,
              20.2961
            ],
            [
              85.83995084971875,
              20.343652825814758
            ],
            [
              85.83024906547972,
              20.350798704245253
            ],
            [
              85.81927357683662,
              20.345826094768412
            ],
            [
              85.8245,
              20.2961
            ]
          ]
        ]
      }
    },
    {
      "type": "Feature",
      "properties": {
        "ward_number": 5,
        "name": "Ward 5",
        "centroid": [
          85.81677457514063,
          20.319876412907377
        ],
        "area_sq_km": 6.34
      },
      "geometry": {
        "type": "Polygon",
        "coordinates": [
          [
            [
              85.8245,
              20.2961
            ],
            [
              85.81927357683662,
              20.345826094768412
            ],
            [
              85.80750406530937,
              20.34840810839623
            ],
            [
              85.7995,
              20.33940127018922
            ],
            [
              85.8245,
              20.2961
            ]
          ]
        ]
      }
    },
    {
      "type": "Feature",
      "properties": {
        "ward_number": 6,
        "name": "Ward 6",
        "centroid": [
          85.80777173484103,
          20.314678620636933
        ],
        "area_sq_km": 6.34
      },
      "geometry": {
        "type": "Polygon",
        "coordinates": [
          [
            [
              85.8245,
              20.2961
            ],
            [
              85.7995,
              20.33940127018922
            ],
            [
              85.78769781665027,
              20.336972965401255
            ],
            [
              85.78404915028125,
              20.325489262614624
            ],
            [
              85.8245,
              20.2961
            ]
          ]
        ]
      }
    },
    {
      "type": "Feature",
      "properties": {
        "ward_number": 7,
        "name": "Ward 7",
        "centroid": [
          85.80166136355894,
          20.306268416076893
        ],
        "area_sq_km": 6.34
      },
      "geometry": {
        "type": "Polygon",
        "coordinates": [
          [
            [
              85.8245,
              20.2961
            ],
            [
              85.78404915028125,
              20.325489262614624
            ],
            [
              85.77425499982965,
              20.318470515369167
            ],
            [
              85.7755926199633,
              20.306495584540887
            ],
            [
              85.8245,
              20.2961
            ]
          ]
        ]
      }
    },
    {
      "type": "Feature",
      "properties": {
        "ward_number": 8,
        "name": "Ward 8",
        "centroid": [
          85.7995,
          20.2961
        ],
        "area_sq_km": 6.34
      },
      "geometry": {
        "type": "Polygon",
        "coordinates": [
          [
            [
              85.8245,
              20.2961
            ],
            [
              85.7755926199633,
              20.306495584540887
            ],
            [
              85.7695,
              20.2961
            ],
            [
              85.7755926199633,
              20.28570441545911
            ],
            [
              85.8245,
              20.2961
            ]
          ]
        ]
      }
    },
    {
      "type": "Feature",
      "properties": {
        "ward_number": 9,
        "name": "Ward 9",
        "centroid": [
          85.80166136355894,
          20.285931583923105
        ],
        "area_sq_km": 6.34
      },
      "geometry": {
        "type": "Polygon",
        "coordinates": [
          [
            [
              85.8245,
              20.2961
            ],
            [
              85.7755926199633,
              20.28570441545911
            ],
            [
              85.77425499982965,
              20.27372948463083
            ],
            [
              85.78404915028125,
              20.266710737385374
            ],
            [
              85.8245,
              20.2961
            ]
          ]
        ]
      }
    },
    {
      "type": "Feature",
      "properties": {
        "ward_number": 10,
        "name": "Ward 10",
        "centroid": [
          85.80777173484103,
          20.277521379363066
        ],
        "area_sq_km": 6.34
      },
      "geometry": {
        "type": "Polygon",
        "coordinates": [
          [
            [
              85.8245,
              20.2961
            ],
            [
              85.78404915028125,
              20.266710737385374
            ],
            [
              85.78769781665027,
              20.255227034598743
            ],
            [
              85.7995,
              20.252798729810777
            ],
            [
              85.8245,
              20.2961
            ]
          ]
        ]
      }
    },
    {
      "type": "Feature",
      "properties": {
        "ward_number": 11,
        "name": "Ward 11",
        "centroid": [
          85.81677457514063,
          20.27232358709262
        ],
        "area_sq_km": 6.34
      },
      "geometry": {
        "type": "Polygon",
        "coordinates": [
          [
            [
              85.8245,
              20.2961
            ],
            [
              85.7995,
              20.252798729810777
            ],
            [
              85.80750406530937,
              20.243791891603767
            ],
            [
              85.81927357683662,
              20.246373905231586
            ],
            [
              85.8245,
              20.2961
            ]
          ]
        ]
      }
    },
    {
      "type": "Feature",
      "properties": {
        "ward_number": 12,
        "name": "Ward 12",
        "centroid": [
          85.82711321158169,
          20.27123695261579
        ],
        "area_sq_km": 6.34
      },
      "geometry": {
        "type": "Polygon",
        "coordinates": [
          [
            [
              85.8245,
              20.2961
            ],
            [
              85.81927357683662,
              20.246373905231586
            ],
            [
              85.83024906547972,
              20.241401295754745
            ],
            [
              85.83995084971875,
              20.24854717418524
            ],
            [
              85.8245,
              20.2961
            ]
          ]
        ]
      }
    },
    {
      "type": "Feature",
      "properties": {
        "ward_number": 13,
        "name": "Ward 13",
        "centroid": [
          85.837,
          20.274449364905387
        ],
        "area_sq_km": 6.34
      },
      "geometry": {
        "type": "Polygon",
        "coordinates": [
          [
            [
              85.8245,
              20.2961
            ],
            [
              85.83995084971875,
              20.24854717418524
            ],
            [
              85.852,
              20.248468602791856
            ],
            [
              85.85795653031795,
              20.25894275872613
            ],
            [
              85.8245,
              20.2961
            ]
          ]
        ]
      }
    },
    {
      "type": "Feature",
      "properties": {
        "ward_number": 14,
        "name": "Ward 14",
        "centroid": [
          85.84472542485938,
          20.28140536869269
        ],
        "area_sq_km": 6.34
      },
      "geometry": {
        "type": "Polygon",
        "coordinates": [
          [
            [
              85.8245,
              20.2961
            ],
            [
              85.85795653031795,
              20.25894275872613
            ],
            [
              85.86899593469062,
              20.263771811123913
            ],
            [
              85.87017727288213,
              20.275763167846208
            ],
            [
              85.8245,
              20.2961
            ]
          ]
        ]
      }
    },
    {
      "type": "Feature",
      "properties": {
        "ward_number": 15,
        "name": "Ward 15",
        "centroid": [
          85.84895369001835,
          20.290902207729555
        ],
        "area_sq_km": 6.34
      },
      "geometry": {
        "type": "Polygon",
        "coordinates": [
          [
            [
              85.8245,
              20.2961
            ],
            [
              85.87017727288213,
              20.275763167846208
            ],
            [
              85.87829811804036,
              20.284664857005023
            ],
            [
              85.8745,
              20.2961
            ],
            [
              85.8245,
              20.2961
            ]
          ]
        ]
      }
    }
  ]
}